STATION,LATITUDE,LONGITUDE,ZIP_Code
larrabeest&kingsburyst,41.897764,-87.642884,60610
orleansst&merchandisemartplaza,41.888243,-87.63639,60654
63rdstbeach,41.781016,-87.57612,60649
stonyislandave&67thst,41.773458,-87.58534,60619
clintonst&polkst,41.871467,-87.640949,60607
statest&pearsonst,41.897448,-87.628722,60611
desplainesst&jacksonblvd,41.878287,-87.643909,60661
halstedst&polkst,41.87184,-87.64664,60607
900wharrisonst,41.874754,-87.649807,60607
jefferyblvd&71stst,41.766638,-87.57645,60619
dearbornst&eriest,41.893992,-87.629318,60654
sedgwickst&huronst,41.894666,-87.638437,60610
sheffieldave&wavelandave,41.949399,-87.654529,60613
sheffieldave&wellingtonave,41.936266,-87.652662,60657
westernave&winnebagoave,41.91552,-87.687022,60647
wiltonave&belmontave,41.94018,-87.65304,60657
sedgwickst&northave,41.911386,-87.638677,60614
ashlandave&lakest,41.88592,-87.66717,60612
wentworthave&cermakrd(temp),41.853005,-87.630578,60616
blackstoneave&hydeparkblvd,41.802562,-87.590368,60615
southshoredr&71stst,41.766409,-87.565688,60649
greenst&randolphst,41.883668,-87.64867,60661
bissellst&armitageave,41.91844,-87.65222,60614
lincolnave&fullertonave,41.925905,-87.64926,60614
ogdenave&congresspkwy,41.87501,-87.67328,60612
californiaave&milwaukeeave,41.922695,-87.697153,60647
damenave&cullertonst,41.855048,-87.675726,60608
rushst&hubbardst,41.890173,-87.626185,60611
clarkst&northave,41.911974,-87.631942,60610
damenave&chicagoave,41.895769,-87.67722,60651
blueislandave&18thst,41.857556,-87.661535,60608
damenave&divisionst,41.903266,-87.678435,60622
lincolnave&belmontave,41.939365,-87.668385,60657
wiltonave&diverseypkwy,41.932418,-87.652705,60657
wentworthave&24thst(temp),41.850084,-87.632141,60616
kingsburyst&kinziest,41.889177,-87.638506,60654
peoriast&jacksonblvd,41.878691,-87.649532,60607
racineave&13thst,41.865054,-87.656959,60608
morganave&14thpl,41.862378,-87.651062,60608
halstedst&21stst,41.85378,-87.64665,60616
clybournave&divisionst,41.904613,-87.640552,60610
dearbornpkwy&delawarepl,41.898969,-87.629912,60610
clarkst&lincolnave,41.915689,-87.6346,60610
sedgwickst&websterave,41.922167,-87.638888,60614
larrabeest&websterave,41.921822,-87.64414,60614
miesvanderroheway&chestnutst,41.898587,-87.621915,60611
loomisst&jacksonblvd,41.877945,-87.662007,60607
indianaave&26thst,41.845687,-87.622481,60616
statest&33rdst,41.834734,-87.625813,60616
morganst&18thst,41.858086,-87.651073,60608
mcclurgct&eriest,41.894503,-87.617854,60611
campbellave&northave,41.910535,-87.689556,60647
calumetave&33rdst,41.8349,-87.61793,60616
fortdearborndr&31stst,41.838556,-87.608218,60653
racineave&18thst,41.858166,-87.656495,60608
lincolnave&diverseypkwy,41.932225,-87.658617,60657
southportave&wellingtonave,41.935733,-87.663576,60657
southportave&belmontave,41.93949,-87.66378,60657
clarkst&wellingtonave,41.936497,-87.647539,60657
lakeshoredr&wellingtonave,41.936637,-87.636963,60657
milwaukeeave&wabansiaave,41.912616,-87.681391,60647
claremontave&hirschst,41.907781,-87.685854,60647
damenave&clybournave,41.931931,-87.677856,60614
rushst&superiorst,41.895765,-87.625908,60611
paulinaave&northave,41.910337,-87.670072,60622
damenave&wellingtonave,41.93588,-87.67842,60618
ashlandave&wrightwoodave,41.92883,-87.668507,60614
franklinst&lakest,41.885837,-87.6355,60606
clarkst&gracest,41.95078,-87.659172,60613
canalst&madisonst,41.882091,-87.639833,60606
damenave&coulterst,41.8492,-87.67564,60608
michiganave&14thst,41.864059,-87.623727,60605
canalst&harrisonst,41.874255,-87.639573,60606
clintonst&18thst,41.85795,-87.640826,60616
mayst&cullertonst,41.855136,-87.654127,60608
honorest&divisionst,41.903119,-87.673935,60622
rushst&cedarst,41.902309,-87.627691,60611
miesvanderroheway&chicagoave,41.89691,-87.621743,60611
statest&19thst,41.856594,-87.627542,60616
mlkjrdr&pershingrd,41.8246,-87.61678,60653
ritchiect&banksst,41.906866,-87.626217,60610
lasallest&illinoisst,41.890762,-87.631697,60654
wackerdr&washingtonst,41.883132,-87.637321,60606
wellsst&elmst,41.903222,-87.634324,60610
wellsst&polkst,41.872596,-87.633502,60607
clarkst&elmst,41.902973,-87.63128,60610
theateronthelake,41.926277,-87.630834,60614
damenave&thomasst(augustablvd),41.901315,-87.677409,60622
statest&35thst,41.8309,-87.62803,60616
stavest&armitageave,41.917741,-87.691392,60647
ogdenave&raceave,41.891795,-87.658751,60622
greenviewave&fullertonave,41.92533,-87.6658,60613
southportave&wrightwoodave,41.928773,-87.663913,60614
canalst&monroest,41.88169,-87.63953,60606
throop(loomis)st&taylorst,41.868968,-87.659141,60608
canalst&adamsst,41.879255,-87.639904,60606
statest&29thst,41.841707,-87.626938,60616
wabashave&wackerpl,41.886875,-87.62603,60602
columbusdr&randolphst,41.884728,-87.619521,60601
cityfrontplazadr&pioneerct,41.890573,-87.622072,60611
michiganave&madisonst,41.882134,-87.625125,60603
greenst&madisonst,41.881892,-87.648789,60607
wabashave&grandave,41.891466,-87.626761,60611
mlkjrdr&47thst,41.809851,-87.616279,60653
indianaave&40thst,41.82168,-87.6216,60653
sheffieldave&kingsburyst,41.910522,-87.653106,60642
prairieave&garfieldblvd,41.794853,-87.618691,60615
paulinast&18thst,41.857901,-87.668745,60608
halstedst&archerave,41.847203,-87.646795,60616
emeraldave&28thst,41.84358,-87.645368,60616
ashlandave&21stst,41.85381,-87.665897,60608
normalave&archerave,41.849527,-87.640591,60616
ashlandave&divisionst,41.90345,-87.667747,60622
halstedst&18thst,41.857499,-87.646277,60616
westernave&21stst,41.854109,-87.685838,60608
aberdeenst&jacksonblvd,41.877726,-87.654787,60607
st.clairst&eriest,41.894448,-87.622663,60611
leavittst&northave,41.910153,-87.68229,60647
damenave&grandave,41.89122,-87.67686,60622
damenave&madisonst,41.88137,-87.67493,60612
californiaave&divisionst,41.903029,-87.697474,60647
elizabeth(may)st&fultonst,41.886616,-87.65804,60661
wellsst&19thst,41.856802,-87.633879,60616
wellsst&hubbardst,41.889906,-87.634266,60654
clarkst&drummondpl,41.931248,-87.644336,60614
mayst&taylorst,41.869482,-87.655486,60607
milwaukeeave&rockwellst,41.920195,-87.693033,60647
damenave&cortlandst,41.915983,-87.677335,60622
buckinghamfountain,41.876511,-87.620548,60605
southportave&wavelandave,41.94815,-87.66394,60613
cliftonave&armitageave,41.918216,-87.656936,60614
halstedst&willowst,41.913865,-87.648755,60614
halstedst&dickensave,41.919936,-87.64883,60614
racineave&belmontave,41.939743,-87.658865,60657
clarkst&montroseave,41.961588,-87.666036,60640
damenave&melroseave,41.9406,-87.6785,60613
southportave&roscoest,41.943739,-87.66402,60613
lincolnave&roscoest,41.94334,-87.67097,60613
sheridanrd&montroseave,41.96167,-87.65464,60613
orleansst&elmst,41.902924,-87.637715,60610
pinegroveave&wavelandave,41.949275,-87.646303,60613
sangamonst&washingtonblvd,41.883165,-87.6511,60607
clarendonave&juniorter,41.961004,-87.649603,60613
ashlandave&belleplaineave,41.956057,-87.668835,60613
sedgwickst&schillerst,41.907626,-87.638566,60610
mlkjrdr&29thst,41.842052,-87.617,60616
wolcott(ravenswood)ave&montroseave,41.961406,-87.676169,60640
westernave&lelandave,41.966555,-87.688487,60625
sheridanrd&irvingparkrd,41.954245,-87.654406,60613
morganst&polkst,41.871737,-87.65103,60607
fairbanksct&grandave,41.8925,-87.6207,60611
damenave&lelandave,41.967094,-87.679028,60640
lincolnave&sunnysideave,41.963004,-87.684781,60625
ravenswoodave&irvingparkrd,41.95469,-87.67393,60613
woodlawnave&55thst,41.795264,-87.596471,60637
montroseharbor,41.963982,-87.638181,60613
ashlandave&wellingtonave,41.936083,-87.669807,60618
shoredr&55thst,41.795212,-87.580715,60615
clarendonave&lelandave,41.967968,-87.650001,60640
broadway&sheridanrd,41.952833,-87.649993,60613
lincolnave&wavelandave,41.948797,-87.675278,60618
loganblvd&elstonave,41.929465,-87.684158,60647
californiaave&francispl(temp),41.918491,-87.697423,60647
michiganave&pearsonst,41.89766,-87.62351,60611
greenwoodave&47thst,41.809835,-87.599383,60615
winthropave&lawrenceave,41.968812,-87.657659,60640
pinegroveave&irvingparkrd,41.954383,-87.648043,60613
indianaave&rooseveltrd,41.867888,-87.623041,60605
hermitageave&polkst,41.871514,-87.669886,60612
mcclurgct&illinoisst,41.890359,-87.617532,60611
halstedst&37thst,41.827059,-87.64572,60609
rhodesave&32ndst,41.836208,-87.613533,60653
stetsonave&southwaterst,41.886835,-87.62232,60602
cottagegroveave&oakwoodblvd,41.822985,-87.6071,60653
lakeparkave&47thst,41.809443,-87.591875,60653
lakeshoredr&northblvd,41.911722,-87.626804,60610
stonyislandave&75thst,41.75867,-87.586883,60649
cottagegroveave&43rdst,41.816499,-87.606582,60653
larrabeest&northave,41.91021,-87.6435,60610
indianaave&31stst,41.838842,-87.621857,60616
michiganave&18thst,41.857813,-87.62455,60616
kedzieave&milwaukeeave,41.929567,-87.707857,60647
ashlandave&13thst,41.865234,-87.666507,60608
californiaave&northave,41.91044,-87.6972,60647
ashlandave&grandave,41.891072,-87.666611,60642
wallacest&35thst,41.830629,-87.64129,60616
halstedst&35thst,41.830661,-87.647172,60632
racineave&15thst,41.861267,-87.656625,60608
westernave&24thst,41.84847,-87.685109,60608
larrabeest&menomoneest,41.91468,-87.64332,60614
morganst&31stst,41.8378,-87.65114,60609
halstedst&maxwellst,41.864883,-87.647071,60608
lasallest&jacksonblvd,41.878166,-87.631929,60604
kedzieave&palmerct,41.921525,-87.707322,60647
wellsst&evergreenave,41.906724,-87.63483,60610
noblest&milwaukeeave,41.90068,-87.6626,60642
southportave&clarkst,41.957081,-87.664199,60613
broadway&wilsonave,41.965221,-87.658139,60640
broadway&berwynave,41.978353,-87.659753,60640
broadway&argylest,41.973815,-87.65966,60626
broadway&belmontave,41.940106,-87.645451,60657
paulinast&montroseave,41.961507,-87.671387,60613
lincolnave&belleplaineave,41.95602,-87.680293,60618
halstedst&roscoest,41.94367,-87.64895,60657
michiganave&jacksonblvd,41.87785,-87.62408,60604
woodst&hubbardst,41.889899,-87.671473,60622
franklinst&adamsst(temp),41.879434,-87.635504,60606
franklinst&monroest,41.880317,-87.635185,60606
larrabeest&armitageave,41.918084,-87.643749,60610
wellsst&concordln,41.912133,-87.634656,60614
broadway&wavelandave,41.949074,-87.648636,60613
broadway&barryave,41.937725,-87.644095,60657
clarkst&schillerst,41.907993,-87.631501,60610
ashlandave&augustablvd,41.899643,-87.6677,60622
sheffieldave&wrightwoodave,41.928712,-87.653833,60614
broadway&corneliaave,41.945529,-87.646439,60657
sheridanrd&buenaave,41.958494,-87.654966,60613
westernave&divisionst,41.902893,-87.687275,60622
southportave&clybournave,41.920771,-87.663712,60614
seeleyave&roscoest,41.943403,-87.679618,60618
leavittst&armitageave,41.917805,-87.682437,60647
damenave&charlestonst,41.920082,-87.677855,60647
leavittst&lawrenceave,41.968885,-87.684001,60625
franklinst&chicagoave,41.896747,-87.635668,60654
clarendonave&gordonter,41.957879,-87.649519,60613
lakeviewave&fullertonpkwy,41.925858,-87.638973,60614
ravenswoodave&berteauave,41.957921,-87.673567,60613
elstonave&wabansiaave,41.912919,-87.664169,60642
damenave&sunnysideave,41.96325,-87.679258,60640
woodst&taylorst,41.869154,-87.671045,60612
southportave&irvingparkrd,41.954177,-87.664358,60613
greenviewave&diverseypkwy,41.93259,-87.665936,60613
sheddaquarium,41.867226,-87.615355,60605
loomisst&lexingtonst,41.872187,-87.661501,60607
wabashave&9thst,41.870769,-87.625734,60605
racineave&congresspkwy,41.87464,-87.65703,60607
sheridanrd&lawrenceave,41.969517,-87.654691,60640
stocktondr&wrightwoodave,41.93132,-87.638742,60614
clarkst&winnemacave,41.97334,-87.66778,60640
clarkst&lelandave,41.967096,-87.667429,60640
sheffieldave&websterave,41.92154,-87.653818,60614
ellisave&58thst,41.788746,-87.601334,60637
lakeshoredr&diverseypkwy,41.932588,-87.636427,60614
lincolnave&addisonst,41.946176,-87.673308,60613
halstedst&clybournave,41.909668,-87.648128,60642
statest&vanburenst,41.877181,-87.627844,60604
burlingst(halsted)&diverseypkwy(temp),41.93314,-87.64776,60657
ashlandave&blackhawkst,41.907066,-87.667252,60622
lakeshoredr&belmontave,41.940775,-87.639192,60657
calumetave&35thst,41.831379,-87.618034,60616
cottagegroveave&47thst,41.809855,-87.606755,60637
clarkst&chicagoave,41.89675,-87.63089,60610
calumetave&18thst,41.857611,-87.619407,60616
kimbarkave&53rdst,41.799568,-87.594747,60615
emeraldave&31stst,41.838198,-87.645143,60616
clarkst&wrightwoodave,41.929546,-87.643118,60614
adlerplanetarium,41.866095,-87.607267,60605
cannondr&fullertonave,41.926756,-87.634429,60614
wolcottave&polkst,41.871262,-87.673688,60612
racineave&wrightwoodave,41.928887,-87.658971,60614
ravenswoodave&lawrenceave,41.96909,-87.674237,60640
lakeparkave&56thst,41.793242,-87.587782,60637
adast&washingtonblvd,41.88283,-87.661206,60607
halstedst&wrightwoodave,41.929143,-87.649077,60614
ashlandave&chicagoave,41.895966,-87.667747,60622
cottagegroveave&51stst,41.803038,-87.606615,60615
ashlandave&gracest,41.950687,-87.6687,60618
californiaave&21stst,41.853804,-87.695742,60623
larrabeest&divisionst,41.903486,-87.643353,60610
franklinst&jacksonblvd,41.877708,-87.635321,60606
larrabeest&oakst,41.900219,-87.642985,60610
halstedst&northbranchst,41.899368,-87.64848,60622
loomisst&archerave,41.841633,-87.657435,60608
racineave&35thst,41.830696,-87.655976,60609
streeterdr&grandave,41.892278,-87.612043,60611
jefferyblvd&67thst,41.773518,-87.577143,60649
clarkst&touhyave,42.01256,-87.674367,60626
sheridanrd&greenleafave,42.010587,-87.662412,60626
southshoredr&67thst,41.773643,-87.567514,60619
stonyislandave&71stst,41.766493,-87.586461,60649
ashlandave&archerave,41.839209,-87.66561,60620
woodst&35thst,41.830105,-87.670298,60609
calumetave&21stst,41.854184,-87.619154,60616
westernave&congresspkwy,41.874749,-87.686445,60612
paulinast&flournoyst,41.87295,-87.66913,60612
halstedst&51stst,41.801832,-87.645214,60609
princetonave&garfieldblvd,41.794982,-87.633124,60621
halstedst&56thst,41.79293,-87.64499,60621
halstedst&63rdst,41.779381,-87.644621,60621
wentworthave&63rdst,41.78008,-87.629746,60636
halstedst&69thst,41.769062,-87.644614,60621
wabashave&adamsst,41.879472,-87.625689,60603
dearbornst&adamsst,41.879356,-87.629791,60604
kedzieave&chicagoave,41.895465,-87.706128,60624
westernave&waltonst,41.898418,-87.686596,60622
sacramentoblvd&franklinblvd,41.890469,-87.702608,60622
artesianave&hubbardst,41.889492,-87.688219,60612
kedzieave&lakest,41.884603,-87.706304,60624
californiaave&lakest,41.884454,-87.696298,60625
westernave&monroest,41.879788,-87.686113,60612
clarkst&lakest,41.886021,-87.630876,60696
perryave&69thst,41.769293,-87.628196,60621
calumetave&71stst,41.765508,-87.616918,60619
clarkst&9thst(amli),41.870816,-87.631246,60605
jefferyblvd&76thst,41.75712,-87.575839,60649
yatesblvd&75thst,41.758768,-87.56644,60617
rainbowbeach,41.757871,-87.549386,60649
southshoredr&74thst,41.762189,-87.559275,60649
cottagegroveave&71stst,41.765719,-87.60496,60619
shieldsave&28thpl,41.842733,-87.635491,60616
lasallest&adamsst,41.879344,-87.631985,60604
shieldsave&31stst,41.838464,-87.635406,60616
wentworthave&35thst,41.830777,-87.632504,60616
lakeparkave&35thst,41.831274,-87.608799,60653
wentworthave&33rdst,41.83453,-87.631823,60616
canalst&taylorst,41.870257,-87.639474,60605
calumetave&51stst,41.802295,-87.618054,60615
dorchesterave&49thst,41.805772,-87.592464,60615
cornellave&hydeparkblvd,41.802406,-87.586924,60615
ellisave&53rdst,41.799336,-87.600958,60615
lakeparkave&53rdst,41.799494,-87.58645,60615
burnhamharbor,41.856268,-87.613348,60605
ellisave&55thst,41.794301,-87.60145,60637
mlkjrdr&56thst,41.793429,-87.615853,60637
wabashave&cermakrd,41.852619,-87.626488,60616
dusablemuseum,41.791568,-87.607852,60637
statest&pershingrd,41.823015,-87.626568,60653
unionave&rootst,41.819102,-87.643278,60609
shieldsave&43rdst,41.816208,-87.634819,60609
prairieave&43rdst,41.816659,-87.619412,60653
halstedst&47thpl,41.808134,-87.645617,60609
federalst&polkst,41.872078,-87.629544,60605
princetonave&47thst,41.809318,-87.633449,60621
woodlawnave&lakeparkave,41.814093,-87.597005,60637
universityave&57thst,41.791478,-87.599861,60637
museumofscienceandindustry,41.791728,-87.583945,60637
harperave&59thst,41.787943,-87.588315,60637
ellisave&60thst,41.785097,-87.601073,60637
cottagegroveave&63rdst,41.780599,-87.606112,60637
dorchesterave&63rdst,41.780406,-87.591416,60637
cottagegroveave&67thst,41.773721,-87.605635,60619
mlkjrdr&63rdst,41.780081,-87.615943,60637
fairfieldave&rooseveltrd,41.866624,-87.694521,60612
washtenawave&ogdenave,41.861894,-87.693511,60608
centralparkave&ogdenave,41.854204,-87.715406,60623
kedzieave&21stst,41.853534,-87.705073,60623
centralparkave&24thst,41.8481,-87.715068,60623
kedzieave&24thst,41.848191,-87.705414,60623
statest&randolphst,41.88473,-87.627734,60601
californiaave&23rdpl,41.84911,-87.69514,60623
millardave&26thst,41.844567,-87.71591,60623
albanyave&26thst,41.844475,-87.702013,60623
eberhartave&61stst,41.784142,-87.613308,60637
michiganave&washingtonst,41.883984,-87.624684,60602
clarkst&luntave,42.009074,-87.67419,60645
kedzieave&harrisonst,41.8736,-87.704871,60624
ogdenave&rooseveltrd,41.866501,-87.684697,60612
kedzieave&rooseveltrd,41.866493,-87.706496,60624
glenwoodave&morseave,42.007972,-87.665502,60626
warrenparkeast,42.00455,-87.680666,60645
clarkst&columbiaave,42.004451,-87.672402,60626
warrenparkwest,42.001785,-87.688829,60645
sheridanrd&loyolaave,42.001044,-87.661198,60626
michiganave&idabwellsdr,41.876243,-87.624426,60605
westernave&granvilleave,41.994161,-87.689438,60645
californiaave&26thst,41.84404,-87.695296,60629
westernave&28thst,41.841518,-87.685131,60608
maplewoodave&petersonave,41.990236,-87.69337,60645
2112wpetersonave,41.991178,-87.683593,60659
clarkst&elmdaleave,41.990518,-87.669834,60660
broadway&thorndaleave,41.989743,-87.660141,60660
lakefronttrail&brynmawrave,41.984037,-87.65231,60660
clarkst&brynmawrave,41.983593,-87.669154,60660
broadway&ridgeave,41.984045,-87.660274,60660
wellsst&waltonst,41.89993,-87.63443,60610
winchester(ravenswood)ave&balmoralave,41.979762,-87.67753,60660
clarkst&berwynave,41.977997,-87.668047,60640
clarkst&schreiberave,41.999252,-87.671377,60626
broadway&granvilleave,41.99478,-87.660285,60660
damenave&fosterave,41.975615,-87.679459,60640
kedzieave&lelandave,41.966686,-87.708052,60625
manorave&lelandave,41.965875,-87.700825,60625
rockwellst&eastwoodave,41.9659,-87.693638,60625
drakeave&montroseave,41.961154,-87.716569,60625
albanyave&montroseave,41.961041,-87.705866,60625
californiaave&montroseave,41.961068,-87.695439,60625
campbellave&montroseave,41.961526,-87.691165,60625
avondaleave&irvingparkrd,41.953393,-87.732002,60641
monticelloave&irvingparkrd,41.954005,-87.719128,60618
sawyerave&irvingparkrd,41.953586,-87.709311,60618
oakleyave&irvingparkrd,41.954341,-87.68608,60618
californiaave&byronst,41.952162,-87.698051,60625
pulaskird&eddyst(temp),41.946264,-87.731023,60641
drakeave&addisonst,41.947326,-87.717582,60618
marinedr&ainsliest,41.9716,-87.650154,60640
ridgeblvd&touhyave,42.012132,-87.682913,60645
westernave&luntave,42.008594,-87.690492,60645
budlongwoodslibrary,41.983665,-87.696423,60659
st.louisave&balmoralave,41.980394,-87.716115,60625
kedzieave&fosterave,41.975672,-87.709261,60625
franciscoave&fosterave,41.975633,-87.701419,60659
statest&kinziest,41.889187,-87.627754,60611
lincolnave&winonast,41.974911,-87.692503,60625
christianaave&lawrenceave,41.968354,-87.711831,60625
washtenawave&lawrenceave,41.968987,-87.696027,60625
leavittst&addisonst,41.946655,-87.683359,60625
westernave&roscoest,41.943034,-87.687288,60618
troyst&elstonave,41.945244,-87.70665,60618
talmanave&addisonst,41.946636,-87.694615,60618
dearbornst&monroest,41.88132,-87.629521,60602
richmondst&diverseyave,41.931902,-87.701195,60618
clarkst&idabwellsdr,41.875933,-87.630585,60604
kedzieave&brynmawrave,41.982397,-87.708923,60659
keystoneave&montroseave,41.961108,-87.72897,60630
aversave&belmontave,41.939408,-87.723574,60618
kimballave&belmontave,41.939398,-87.711561,60618
californiaave&fletcherst,41.938429,-87.698008,60625
kosciuszkopark,41.930585,-87.723777,60647
centralparkave&elbridgeave,41.935337,-87.716889,60618
californiaave&altgeldst,41.92669,-87.697668,60625
drakeave&fullertonave,41.924399,-87.715441,60647
campbellave&fullertonave,41.924632,-87.689307,60647
winchesterave&elstonave,41.924091,-87.67646,60614
spauldingave&armitageave,41.917108,-87.710221,60647
humboldtblvd&armitageave,41.917513,-87.701809,60647
centralparkave&northave,41.909657,-87.716632,60647
troyst&northave,41.909769,-87.70528,60647
spauldingave&divisionst,41.902707,-87.70922,60647
albanyave&bloomingdaleave,41.914027,-87.705126,60647
clarkst&randolphst,41.884576,-87.63189,60696
ridgeblvd&howardst,42.019276,-87.68452,60202
paulinast&howardst,42.019159,-87.673573,60626
clarkst&jarvisave,42.015963,-87.675005,60626
conservatorydr&lakest,41.885502,-87.716866,60624
wolcottave&fargoave,42.016977,-87.677725,60626
glenwoodave&touhyave,42.012701,-87.666058,60626
oakleyave&touhyave,42.012342,-87.688243,60645
westernave&howardst,42.018901,-87.690048,60645
statest&harrisonst,41.874053,-87.627716,60605
greenviewave&jarvisave,42.015962,-87.66857,60626
michiganave&lakest,41.886024,-87.624117,60601
bosworthave&howardst,42.019537,-87.669563,60626
eastlaketer&rogersave,42.021019,-87.665086,60626
austinblvd&chicagoave,41.894887,-87.774704,60651
wellsst&huronst,41.894722,-87.634362,60654
austinblvd&lakest,41.887919,-87.774446,60302
centralparkblvd&5thave,41.875679,-87.71547,60624
karlovave&madisonst,41.88085,-87.727907,60624
pulaskird&congresspkwy,41.874325,-87.725704,60644
kostnerave&lakest,41.885928,-87.73541,60624
kentonave&madisonst,41.880708,-87.741018,60651
ciceroave&flournoyst,41.872131,-87.746619,60644
ciceroave&quincyst,41.877613,-87.745405,60644
laramieave&madisonst,41.880207,-87.755337,60644
pulaskird&lakest,41.885409,-87.726491,60624
ciceroave&lakest,41.886841,-87.745261,60644
laramieave&kinziest,41.887832,-87.755527,60644
centralave&lakest,41.887664,-87.765469,60644
centralave&harrisonst,41.872993,-87.764499,60804
ogdenave&chicagoave,41.896362,-87.654061,60642
centralave&madisonst,41.880121,-87.763238,60644
laramieave&gladysave,41.875806,-87.755285,60644
austinblvd&madisonst,41.880281,-87.774453,60644
kostnerave&adamsst,41.877917,-87.735737,60624
damenave&pershingrd,41.823192,-87.676597,60632
ashlandave&pershingrd,41.823465,-87.665577,60609
morganst&pershingrd,41.823613,-87.650931,60609
marshfieldave&44thst,41.813996,-87.666589,60609
centralave&chicagoave,41.894958,-87.764902,60644
ashlandave&garfieldblvd,41.792822,-87.664429,60636
racineave&garfieldblvd,41.794228,-87.655073,60636
marshfieldave&59thst,41.786833,-87.666215,60636
damenave&59thst,41.78602,-87.674167,60636
desplainesst&kinziest,41.888716,-87.644448,60661
hoyneave&47thst,41.808227,-87.67718,60609
halstedst&rooseveltrd,41.867324,-87.648625,60607
ashlandave&mcdowellave,41.80887,-87.66454,60609
elizabethst&47thst,41.80839,-87.656526,60609
damenave&51stst,41.800908,-87.674684,60636
ashlandave&50thst,41.803023,-87.664699,60609
throopst&52ndst,41.799659,-87.657195,60609
seeleyave&garfieldblvd,41.794087,-87.675478,60609
racineave&61stst,41.783189,-87.654372,60636
ashlandave&63rdst,41.779374,-87.664843,60629
racineave&65thst,41.775393,-87.654308,60636
ashlandave&66thst,41.774074,-87.663815,60636
ashlandave&69thst,41.768726,-87.664069,60636
mayst&69thst,41.768938,-87.652934,60620
vincennesave&75thst,41.75797,-87.63121,60620
woodlawnave&75thst,41.75916,-87.595751,60619
evansave&75thst,41.75849,-87.60641,60649
vernonave&75thst,41.758361,-87.614138,60649
clintonst&rooseveltrd,41.867118,-87.641088,60607
statest&76thst,41.756971,-87.624621,60621
statest&79thst,41.750794,-87.624424,60619
vernonave&79thst,41.75094,-87.61379,60619
ellisave&83rdst,41.744123,-87.599034,60619
cottagegroveave&78thst,41.753174,-87.605026,60619
greenwoodave&79thst,41.751294,-87.597552,60619
stonyislandave&southchicagoave,41.751173,-87.585337,60649
bennettave&79thst,41.751785,-87.578496,60649
phillipsave&79thst,41.75182,-87.565211,60649
exchangeave&79thst,41.751731,-87.552812,60617
commercialave&83rdst,41.744615,-87.551208,60617
marshfieldave&cortlandst,41.916017,-87.668879,60622
phillipsave&83rdst,41.744531,-87.56506,60649
stonyislandave&82ndst,41.746559,-87.586005,60619
elmwoodave&austinst,42.025784,-87.684107,60202
valliproduce-evanstonplaza,42.039742,-87.699413,60202
dodgeave&churchst,42.048308,-87.698224,60201
centralstmetra,42.063598,-87.69873,60201
daytonst&northave,41.910578,-87.649422,60614
centralst&girardave,42.064313,-87.686152,60208
cottagegroveave&83rdst,41.743441,-87.604836,60619
mlkjrdr&83rdst,41.743116,-87.6148,60619
wabashave&83rdst,41.743316,-87.622849,60619
southchicagoave&83rdst,41.743921,-87.575225,60649
milwaukeeave&cuylerave,41.954468,-87.749594,60641
kilbournave&irvingparkrd,41.953733,-87.740569,60641
kilbournave&milwaukeeave,41.948818,-87.74002,60641
wabashave&rooseveltrd,41.867227,-87.625961,60605
knoxave&montroseave,41.960631,-87.745359,60641
halstedst&59thst,41.787539,-87.644874,60621
westernblvd&48thpl,41.805661,-87.683392,60609
wabashave&87thst,41.736646,-87.622634,60619
bensonave&churchst,42.048214,-87.683485,60201
chicagoave&washingtonst,42.032562,-87.679101,60202
aberdeenst&randolphst,41.884114,-87.654264,60661
chicagoave&sheridanrd,42.050491,-87.677821,60208
sheridanrd&noyesst(nu),42.058239,-87.677432,60208
universitylibrary(nu),42.052939,-87.673447,60208
woodst&milwaukeeave,41.907655,-87.672552,60622
keystoneave&fullertonave,41.92459,-87.72785,60641
dusableharbor,41.886976,-87.612813,60611
orleansst&chestnutst(nextapts),41.898203,-87.637536,60610
clintonst&jacksonblvd,41.878116,-87.639838,60606
lakefronttrail&wilsonave,41.965845,-87.645361,60625
bernardst&elstonave,41.949923,-87.713949,60625
centralparkave&bloomingdaleave,41.914166,-87.716755,60647
latrobeave&chicagoave,41.894745,-87.756895,60651
smithpark(*),41.892048,-87.689397,60647
westernave&fillmorest(*),41.868563,-87.686234,60612
archer(damen)ave&37thst,41.826712,-87.683144,60609
statest&54thst,41.796642,-87.625923,60621
mccormickplace,41.851375,-87.618835,60616
californiaave&cortezst,41.900363,-87.696704,60647
michiganave&8thst,41.872773,-87.623981,60605
dearbornst&vanburenst,41.876268,-87.629155,60604
chicagoave&dempsterst,42.041691,-87.680687,60208
delanoct&rooseveltrd,41.867491,-87.63219,60605
lasalledr&huronst,41.894877,-87.632326,60610
walshpark,41.91461,-87.667968,60622
kildareave&montroseave,41.96108,-87.73569,60641
malcolmxcollege,41.877618,-87.673895,60612
clarkst&newportst,41.94454,-87.654678,60657
fairbanksst&superiorst,41.895748,-87.620104,60611
orleansst&hubbardst,41.890028,-87.636618,60654
woodst&chicagoave(*),41.895634,-87.672069,60622
carpenterst&63rdst,41.77987,-87.650919,60621
stewartave&63rdst(*),41.779835,-87.634774,60621
egglestonave&69thst(*),41.768898,-87.635876,60636
michiganave&71stst,41.765286,-87.621748,60621
rhodesave&71stst,41.766,-87.611726,60619
cornelldr&hayesdr,41.780595,-87.584846,60637
elizabethst&59thst,41.786691,-87.655859,60636
leavittst&chicagoave,41.895501,-87.682017,60647
sheridanrd&columbiaave,42.004583,-87.661406,60626
evanstonciviccenter,42.057044,-87.686554,60208
clintonst&lakest,41.885637,-87.641823,60661
dodgeave&mulfordst,42.023463,-87.699595,60202
lincolnwooddr&centralst,42.064854,-87.715297,60201
leavittst&belmontave(*),41.939354,-87.683282,60625
southchicagoave&elliotave,41.747363,-87.580046,60617
cherryave&blackhawkst,41.907221,-87.655618,60642
sheffieldave&fullertonave,41.925602,-87.653708,60614
franklinst&illinoisst,41.891023,-87.63548,60654
lincolnparkconservatory,41.923931,-87.635825,60614
clintonst&tildenst,41.875885,-87.640795,60607
damenave&pierceave,41.909396,-87.677692,60622
racineave&washingtonblvd(*),41.883073,-87.656952,60622
hoyneave&balmoralave,41.979851,-87.681932,60625
damenave&walnut(lake)st(*),41.885951,-87.677009,60612
woodst&augustablvd,41.899181,-87.6722,60622
leavittst&divisionst(*),41.902997,-87.683825,60622
racineave&fullertonave,41.925563,-87.658404,60657
racineave&randolphst,41.884069,-87.656853,60607
financialpl&idabwellsdr,41.875024,-87.633094,60604
morganst&lakest,41.885483,-87.652305,60661
fieldblvd&southwaterst,41.886349,-87.617517,60611
wabashave&16thst,41.860384,-87.625813,60605
jeffersonst&monroest,41.880422,-87.642746,60606
kingsburyst&eriest,41.893808,-87.641697,60610
canalst&jacksonblvd,41.877245,-87.639366,60606
lakeshoredr&monroest,41.880958,-87.616743,60603
clintonst&madisonst,41.882242,-87.641066,60661
aberdeenst&monroest,41.880419,-87.655519,60607
daleycenterplaza,41.884241,-87.629634,60602
milwaukeeave&grandave,41.891578,-87.648384,60642
michiganave&oakst,41.90096,-87.623777,60611
eckhartpark,41.896373,-87.660984,60642
leavittst&archerave,41.828792,-87.680604,60632
carpenterst&huronst,41.894556,-87.653449,60642
sheffieldave&willowst,41.913688,-87.652855,60614
clarkst&armitageave,41.918306,-87.636282,60614
stonyislandave&64thst,41.778881,-87.586647,60637
desplainesst&randolphst,41.884616,-87.644571,60661
fieldmuseum,41.865312,-87.617867,60605
lasallest&washingtonst,41.882664,-87.63253,60696
lakeshoredr&ohiost,41.89257,-87.614492,60611
millenniumpark,41.881032,-87.624084,60602
clintonst&washingtonblvd,41.88338,-87.64117,60661
